NORAD_CAT_ID,OBJECT_NAME,OBJECT_TYPE,EPOCH,MEAN_MOTION,ECCENTRICITY,INCLINATION,RA_OF_ASC_NODE,ARG_OF_PERICENTER,MEAN_ANOMALY,BSTAR,MEAN_MOTION_DOT,MEAN_MOTION_DDOT,TLE_LINE0,TLE_LINE1,TLE_LINE2,SEMIMAJOR_AXIS,PERIOD,APOGEE,PERIGEE,DECAYED
49728.0,STARLINK-3240,PAYLOAD,2022-03-27 14:00:01,15.0881837,0.0001501999999999,53.2164,157.4859,54.6134,248.9457,0.0026851,0.00042679,0.0,0 STARLINK-3240,1 49728U 21115E   22086.58334491  .00042679  00000-0  26851-2 0  9997,2 49728  53.2164 157.4859 0001502  54.6134 248.9457 15.08818370  3602,6917.946999999999,95.439,540.851,538.7719999999998,0.0
49728.0,STARLINK-3240,PAYLOAD,2022-03-27 22:00:01,15.08865681,0.0001421,53.2165,155.988,57.7957,257.4156,-0.0032104,-0.00051055,0.0,0 STARLINK-3240,1 49728U 21115E   22086.91668981 -.00051055  00000-0 -32104-2 0  9996,2 49728  53.2165 155.9880 0001421  57.7957 257.4156 15.08865681  3593,6917.802,95.436,540.65,538.684,0.0
49728.0,STARLINK-3240,PAYLOAD,2022-03-28 06:00:00,15.08815501,0.0001296999999999,53.2169,154.4807,57.0498,269.66200000000003,0.0012562,0.00019748,0.0,0 STARLINK-3240,1 49728U 21115E   22087.25001157  .00019748  00000-0  12562-2 0  9997,2 49728  53.2169 154.4807 0001297  57.0498 269.6620 15.08815501 18744,6917.955,95.439,540.7180000000002,538.923,0.0
49728.0,STARLINK-3240,PAYLOAD,2022-03-28 14:00:01,15.08837805,0.0001498,53.217,152.9969,50.6839,287.6844,0.00093644,0.00014646,0.0,0 STARLINK-3240,1 49728U 21115E   22087.58335648  .00014646  00000-0  93644-3 0  9991,2 49728  53.2170 152.9969 0001498  50.6839 287.6844 15.08837805  3595,6917.887,95.438,540.788,538.716,0.0
49728.0,STARLINK-3240,PAYLOAD,2022-03-28 22:00:00,15.08832427,0.0001416999999999,53.2171,151.499,55.9954,293.9168,-6.5613e-05,-1.332e-05,0.0,0 STARLINK-3240,1 49728U 21115E   22087.91667824 -.00001332  00000-0 -65613-4 0  9998,2 49728  53.2171 151.4990 0001417  55.9954 293.9168 15.08832427  3562,6917.904,95.438,540.749,538.788,0.0
49728.0,STARLINK-3240,PAYLOAD,2022-03-29 12:00:00,15.08817897,0.0001522,53.2172,148.8818,50.9168,229.2821,0.00021206,3.087e-05,0.0,0 STARLINK-3240,1 49728U 21115E   22088.50001157  .00003087  00000-0  21206-3 0  9991,2 49728  53.2172 148.8818 0001522  50.9168 229.2821 15.08817897 18930,6917.948,95.439,540.866,538.76,0.0
49728.0,STARLINK-3240,PAYLOAD,2022-03-29 14:00:01,15.08799044,0.0001496999999999,53.2172,148.5079,49.2314,323.8684,0.0032099,0.00051111,0.0,0 STARLINK-3240,1 49728U 21115E   22088.58334491  .00051111  00000-0  32099-2 0  9991,2 49728  53.2172 148.5079 0001497  49.2314 323.8684 15.08799044  3576,6918.005999999999,95.44,540.906,538.835,0.0
49728.0,STARLINK-3240,PAYLOAD,2022-03-29 22:00:00,15.08827716,0.0001345,53.2172,147.01,54.175,330.4968,0.0007387,0.00011484,0.0,0 STARLINK-3240,1 49728U 21115E   22088.91667824  .00011484  00000-0  73870-3 0  9999,2 49728  53.2172 147.0100 0001345  54.1750 330.4968 15.08827716  3573,6917.918000000002,95.438,540.7130000000002,538.852,0.0
49728.0,STARLINK-3240,PAYLOAD,2022-03-30 02:00:01,15.08820471,0.0001315999999999,53.2171,146.2613,57.2875,153.1785,0.0029333,0.0004668,0.0,0 STARLINK-3240,1 49728U 21115E   22089.08334491  .00046680  00000-0  29333-2 0  9999,2 49728  53.2171 146.2613 0001316  57.2875 153.1785 15.08820471 19027,6917.94,95.439,540.715,538.895,0.0
49728.0,STARLINK-3240,PAYLOAD,2022-03-30 12:00:00,15.0884301,0.0001536,53.2171,144.3929,50.9217,264.0358,0.00032122,4.828e-05,0.0,0 STARLINK-3240,1 49728U 21115E   22089.50001157  .00004828  00000-0  32122-3 0  9995,2 49728  53.2171 144.3929 0001536  50.9217 264.0358 15.08843010 19088,6917.871,95.437,540.799,538.674,0.0
49728.0,STARLINK-3240,PAYLOAD,2022-03-30 14:00:01,15.08839014,0.0001534,53.2169,144.0189,49.6042,358.3197,0.00097174,0.00015211,0.0,0 STARLINK-3240,1 49728U 21115E   22089.58335648  .00015211  00000-0  97174-3 0  9994,2 49728  53.2169 144.0189 0001534  49.6042 358.3197 15.08839014  3573,6917.8830000000025,95.438,540.81,538.687,0.0
49728.0,STARLINK-3240,PAYLOAD,2022-03-30 22:00:00,15.08827221,0.0001438,53.2168,142.5208,57.7143,1.7546,0.00074461,0.00011578,0.0,0 STARLINK-3240,1 49728U 21115E   22089.91667824  .00011578  00000-0  74461-3 0  9991,2 49728  53.2168 142.5208 0001438  57.7143   1.7546 15.08827221  3622,6917.919,95.438,540.779,538.79,0.0
49728.0,STARLINK-3240,PAYLOAD,2022-03-31 14:00:01,15.08836558,0.000155,53.2163,139.5299,50.5727,32.0829,0.0004905,7.526e-05,0.0,0 STARLINK-3240,1 49728U 21115E   22090.58334491  .00007526  00000-0  49050-3 0  9991,2 49728  53.2163 139.5299 0001550  50.5727  32.0829 15.08836558 19246,6917.891,95.438,540.828,538.684,0.0
49728.0,STARLINK-3240,PAYLOAD,2022-03-31 22:00:00,15.08825666,0.0001334,53.2161,138.0315,56.2396,38.0359,0.0021176,0.00033561,0.0,0 STARLINK-3240,1 49728U 21115E   22090.91667824  .00033561  00000-0  21176-2 0  9993,2 49728  53.2161 138.0315 0001334  56.2396  38.0359 15.08825666  3573,6917.924,95.438,540.712,538.866,0.0
49728.0,STARLINK-3240,PAYLOAD,2022-04-01 14:00:01,15.0885375,0.0001633,53.2155,135.0405,51.7859,65.6957,-0.0014425999999999,-0.00023182,0.0,0 STARLINK-3240,1 49728U 21115E   22091.58334491 -.00023182  00000-0 -14426-2 0  9998,2 49728  53.2155 135.0405 0001633  51.7859  65.6957 15.08853750  3619,6917.8380000000025,95.437,540.8330000000002,538.5740000000002,0.0
49728.0,STARLINK-3240,PAYLOAD,2022-04-01 22:00:00,15.08806091,0.0001593,53.2153,133.5421,61.7368,67.3647,0.0013823,0.00021759,0.0,0 STARLINK-3240,1 49728U 21115E   22091.91667824  .00021759  00000-0  13823-2 0  9990,2 49728  53.2153 133.5421 0001593  61.7368  67.3647 15.08806091 19448,6917.984,95.44,540.951,538.747,0.0
49728.0,STARLINK-3240,PAYLOAD,2022-04-02 22:00:01,15.08803526,0.0001805,53.2173,129.0384,62.8845,100.9565,0.0034656,0.00055245,0.0,0 STARLINK-3240,1 49728U 21115E   22092.91668981  .00055245  00000-0  34656-2 0  9990,2 49728  53.2173 129.0384 0001805  62.8845 100.9565 15.08803526 19607,6917.9919999999975,95.44,541.106,538.6080000000002,0.0
49728.0,STARLINK-3240,PAYLOAD,2022-04-03 14:00:01,15.08814901,0.0001763,53.2149,126.0614,53.0789,133.9227,0.0026856,0.00042683,0.0,0 STARLINK-3240,1 49728U 21115E   22093.58334491  .00042683  00000-0  26856-2 0  9995,2 49728  53.2149 126.0614 0001763  53.0789 133.9227 15.08814901 19706,6917.956999999999,95.439,541.0419999999998,538.602,0.0
49728.0,STARLINK-3240,PAYLOAD,2022-04-03 22:00:00,15.08829599,0.000159,53.215,124.5631,58.5163,140.0742,-7.38e-05,-1.462e-05,0.0,0 STARLINK-3240,1 49728U 21115E   22093.91667824 -.00001462  00000-0 -73800-4 0  9996,2 49728  53.2150 124.5631 0001590  58.5163 140.0742 15.08829599  3594,6917.9119999999975,95.438,540.877,538.677,0.0
49728.0,STARLINK-3240,PAYLOAD,2022-04-04 04:00:00,15.0883514,0.0001638,53.2154,123.4411,58.9482,58.3257,-0.0011035,-0.00017805,0.0,0 STARLINK-3240,1 49728U 21115E   22094.16667824 -.00017805  00000-0 -11035-2 0  9992,2 49728  53.2154 123.4411 0001638  58.9482  58.3257 15.08835140 19782,6917.895,95.438,540.893,538.627,0.0
49728.0,STARLINK-3240,PAYLOAD,2022-04-04 14:00:01,15.08815093,0.0001761,53.2153,121.5719,50.8572,170.8884,0.0018904,0.00029905,0.0,0 STARLINK-3240,1 49728U 21115E   22094.58334491  .00029905  00000-0  18904-2 0  9993,2 49728  53.2153 121.5719 0001761  50.8572 170.8884 15.08815093  3615,6917.956999999999,95.439,541.04,538.6030000000002,0.0
49728.0,STARLINK-3240,PAYLOAD,2022-04-04 22:00:00,15.08815431,0.0001626,53.2157,120.0736,57.3475,175.9925,0.0030663,0.00048818,0.0,0 STARLINK-3240,1 49728U 21115E   22094.91667824  .00048818  00000-0  30663-2 0  9999,2 49728  53.2157 120.0736 0001626  57.3475 175.9925 15.08815431 19903,6917.955,95.439,540.945,538.696,0.0
49728.0,STARLINK-3240,PAYLOAD,2022-04-05 14:00:01,15.08851764,0.0001754999999999,53.2158,117.0824,50.3948,206.1973,-0.0015757,-0.00025286,0.0,0 STARLINK-3240,1 49728U 21115E   22095.58335648 -.00025286  00000-0 -15757-2 0  9992,2 49728  53.2158 117.0824 0001755  50.3948 206.1973 15.08851764 20001,6917.844,95.437,540.924,538.495,0.0
49728.0,STARLINK-3240,PAYLOAD,2022-04-05 22:00:00,15.08807848,0.0001585999999999,53.2162,115.5843,56.1807,211.9556,0.0031414,0.00050018,0.0,0 STARLINK-3240,1 49728U 21115E   22095.91667824  .00050018  00000-0  31414-2 0  9990,2 49728  53.2162 115.5843 0001586  56.1807 211.9556 15.08807848  3613,6917.979,95.44,540.941,538.746,0.0
49728.0,STARLINK-3240,PAYLOAD,2022-04-06 06:00:02,15.08848682,0.0001705,53.2165,114.0892,54.0233,225.7536,-0.0011364,-0.00018333,0.0,0 STARLINK-3240,1 49728U 21115E   22096.25002315 -.00018333  00000-0 -11364-2 0  9994,2 49728  53.2165 114.0892 0001705  54.0233 225.7536 15.08848682 20102,6917.854,95.437,540.898,538.539,0.0
49728.0,STARLINK-3240,PAYLOAD,2022-04-06 14:00:01,15.08854083,0.0001718,53.2163,112.5933,49.4769,241.8302,-0.0011536,-0.00018608,0.0,0 STARLINK-3240,1 49728U 21115E   22096.58334491 -.00018608  00000-0 -11536-2 0  9999,2 49728  53.2163 112.5933 0001718  49.4769 241.8302 15.08854083  3591,6917.837,95.437,540.891,538.514,0.0
49728.0,STARLINK-3240,PAYLOAD,2022-04-06 22:00:00,15.08807905,0.0001527,53.2167,111.0952,55.7476,247.1771,0.0024433,0.00038777,0.0,0 STARLINK-3240,1 49728U 21115E   22096.91667824  .00038777  00000-0  24433-2 0  9992,2 49728  53.2167 111.0952 0001527  55.7476 247.1771 15.08807905  3560,6917.978,95.44,540.9,538.7869999999998,0.0
49728.0,STARLINK-3240,PAYLOAD,2022-04-07 04:00:00,15.08844035,0.0001575999999999,53.217,109.9739,54.544,167.0543,-0.0012350999999999,-0.00019893,0.0,0 STARLINK-3240,1 49728U 21115E   22097.16667824 -.00019893  00000-0 -12351-2 0  9996,2 49728  53.2170 109.9739 0001576  54.5440 167.0543 15.08844035 20241,6917.868,95.437,540.823,538.643,0.0
49728.0,STARLINK-3240,PAYLOAD,2022-04-07 14:00:01,15.08839658,0.0001661,53.2165,108.1042,48.5791,277.4984,-0.00040087,-6.662e-05,0.0,0 STARLINK-3240,1 49728U 21115E   22097.58334491 -.00006662  00000-0 -40087-3 0  9991,2 49728  53.2165 108.1042 0001661  48.5791 277.4984 15.08839658  3601,6917.880999999999,95.438,540.895,538.597,0.0
